{
  "type": "FeatureCollection",
  "features": [
    {
      "type": "Feature",
      "properties": {
        "norad_id": 37238,
        "name": "INTELSAT 17 (IS-17)",
        "group": "intelsat",
        "lat": 0.008230860143662155,
        "lon": 141.22898881734832,
        "alt_km": 35794.95313301707,
        "timestamp": "2025-12-25T22:42:16.664282+00:00",
        "meta_object_name": "INTELSAT 17 (IS-17)",
        "meta_object_id": "2010-065B",
        "meta_epoch": "2025-12-25T16:37:01.073856",
        "meta_mean_motion": 1.002717,
        "meta_eccentricity": 0.000264,
        "meta_inclination": 0.0062,
        "meta_ra_of_asc_node": 321.7956,
        "meta_arg_of_pericenter": 321.9266,
        "meta_mean_anomaly": 125.9673,
        "meta_ephemeris_type": 0,
        "meta_classification_type": "U",
        "meta_norad_cat_id": 37238,
        "meta_element_set_no": 999,
        "meta_rev_at_epoch": 5150,
        "meta_bstar": 0,
        "meta_mean_motion_dot": 2e-07,
        "meta_mean_motion_ddot": 0,
        "tle_line1": "1 37238U 10065B   25359.69237354  .00000020  00000+0  00000+0 0  9998",
        "tle_line2": "2 37238   0.0062 321.7956 0002640 321.9266 125.9673  1.00271700 51509"
      },
      "geometry": {
        "type": "Point",
        "coordinates": [
          141.22898881734832,
          0.008230860143662155
        ]
      }
    },
    {
      "type": "Feature",
      "properties": {
        "norad_id": 37392,
        "name": "INTELSAT 28 (IS-28)",
        "group": "intelsat",
        "lat": -0.8861753657058116,
        "lon": 43.59838292789911,
        "alt_km": 35796.70855892505,
        "timestamp": "2025-12-25T22:42:16.664294+00:00",
        "meta_object_name": "INTELSAT 28 (IS-28)",
        "meta_object_id": "2011-016A",
        "meta_epoch": "2025-12-25T07:46:46.230816",
        "meta_mean_motion": 1.00271849,
        "meta_eccentricity": 0.0003772,
        "meta_inclination": 1.3552,
        "meta_ra_of_asc_node": 84.9189,
        "meta_arg_of_pericenter": 187.6126,
        "meta_mean_anomaly": 266.5422,
        "meta_ephemeris_type": 0,
        "meta_classification_type": "U",
        "meta_norad_cat_id": 37392,
        "meta_element_set_no": 999,
        "meta_rev_at_epoch": 5154,
        "meta_bstar": 0,
        "meta_mean_motion_dot": -2.04e-06,
        "meta_mean_motion_ddot": 0,
        "tle_line1": "1 37392U 11016A   25359.32414619 -.00000204  00000+0  00000+0 0  9992",
        "tle_line2": "2 37392   1.3552  84.9189 0003772 187.6126 266.5422  1.00271849 51545"
      },
      "geometry": {
        "type": "Point",
        "coordinates": [
          43.59838292789911,
          -0.8861753657058116
        ]
      }
    },
    {
      "type": "Feature",
      "properties": {
        "norad_id": 37834,
        "name": "INTELSAT 18 (IS-18)",
        "group": "intelsat",
        "lat": -0.021826370788183603,
        "lon": -104.7538346903854,
        "alt_km": 35779.46257619078,
        "timestamp": "2025-12-25T22:42:16.664306+00:00",
        "meta_object_name": "INTELSAT 18 (IS-18)",
        "meta_object_id": "2011-056A",
        "meta_epoch": "2025-12-25T13:55:22.248768",
        "meta_mean_motion": 1.00271778,
        "meta_eccentricity": 0.0001891,
        "meta_inclination": 0.0194,
        "meta_ra_of_asc_node": 293.2532,
        "meta_arg_of_pericenter": 356.5598,
        "meta_mean_anomaly": 193.3649,
        "meta_ephemeris_type": 0,
        "meta_classification_type": "U",
        "meta_norad_cat_id": 37834,
        "meta_element_set_no": 999,
        "meta_rev_at_epoch": 5207,
        "meta_bstar": 0,
        "meta_mean_motion_dot": 7.4e-07,
        "meta_mean_motion_ddot": 0,
        "tle_line1": "1 37834U 11056A   25359.58011862  .00000074  00000+0  00000+0 0  9992",
        "tle_line2": "2 37834   0.0194 293.2532 0001891 356.5598 193.3649  1.00271778 52079"
      },
      "geometry": {
        "type": "Point",
        "coordinates": [
          -104.7538346903854,
          -0.021826370788183603
        ]
      }
    },
    {
      "type": "Feature",
      "properties": {
        "norad_id": 38098,
        "name": "INTELSAT 22 (IS-22)",
        "group": "intelsat",
        "lat": 0.044225867959455344,
        "lon": 147.33491394325904,
        "alt_km": 35793.558364977085,
        "timestamp": "2025-12-25T22:42:16.664318+00:00",
        "meta_object_name": "INTELSAT 22 (IS-22)",
        "meta_object_id": "2012-011A",
        "meta_epoch": "2025-12-25T18:02:53.599200",
        "meta_mean_motion": 1.00270571,
        "meta_eccentricity": 0.0001941,
        "meta_inclination": 0.0308,
        "meta_ra_of_asc_node": 50.3417,
        "meta_arg_of_pericenter": 247.6264,
        "meta_mean_anomaly": 139.3482,
        "meta_ephemeris_type": 0,
        "meta_classification_type": "U",
        "meta_norad_cat_id": 38098,
        "meta_element_set_no": 999,
        "meta_rev_at_epoch": 544,
        "meta_bstar": 0,
        "meta_mean_motion_dot": 0,
        "meta_mean_motion_ddot": 0,
        "tle_line1": "1 38098U 12011A   25359.75200925  .00000000  00000+0  00000+0 0  9995",
        "tle_line2": "2 38098   0.0308  50.3417 0001941 247.6264 139.3482  1.00270571  5443"
      },
      "geometry": {
        "type": "Point",
        "coordinates": [
          147.33491394325904,
          0.044225867959455344
        ]
      }
    },
    {
      "type": "Feature",
      "properties": {
        "norad_id": 38356,
        "name": "INTELSAT 19 (IS-19)",
        "group": "intelsat",
        "lat": -0.024302053103669202,
        "lon": -118.7477759181534,
        "alt_km": 35775.16070193539,
        "timestamp": "2025-12-25T22:42:16.664330+00:00",
        "meta_object_name": "INTELSAT 19 (IS-19)",
        "meta_object_id": "2012-030A",
        "meta_epoch": "2025-12-25T13:02:38.686848",
        "meta_mean_motion": 1.00272036,
        "meta_eccentricity": 0.0002961,
        "meta_inclination": 0.0106,
        "meta_ra_of_asc_node": 331.8116,
        "meta_arg_of_pericenter": 299.4654,
        "meta_mean_anomaly": 184.6938,
        "meta_ephemeris_type": 0,
        "meta_classification_type": "U",
        "meta_norad_cat_id": 38356,
        "meta_element_set_no": 999,
        "meta_rev_at_epoch": 4871,
        "meta_bstar": 0,
        "meta_mean_motion_dot": -3.5e-07,
        "meta_mean_motion_ddot": 0,
        "tle_line1": "1 38356U 12030A   25359.54350332 -.00000035  00000+0  00000+0 0  9997",
        "tle_line2": "2 38356   0.0106 331.8116 0002961 299.4654 184.6938  1.00272036 48714"
      },
      "geometry": {
        "type": "Point",
        "coordinates": [
          -118.7477759181534,
          -0.024302053103669202
        ]
      }
    },
    {
      "type": "Feature",
      "properties": {
        "norad_id": 38740,
        "name": "INTELSAT 20 (IS-20)",
        "group": "intelsat",
        "lat": 0.02603509396470134,
        "lon": 143.75105925369292,
        "alt_km": 35777.91429169134,
        "timestamp": "2025-12-25T22:42:16.664343+00:00",
        "meta_object_name": "INTELSAT 20 (IS-20)",
        "meta_object_id": "2012-043A",
        "meta_epoch": "2025-12-24T23:41:40.191072",
        "meta_mean_motion": 1.00274574,
        "meta_eccentricity": 0.00024069,
        "meta_inclination": 0.0114,
        "meta_ra_of_asc_node": 58.8187,
        "meta_arg_of_pericenter": 128.2176,
        "meta_mean_anomaly": 330.6334,
        "meta_ephemeris_type": 0,
        "meta_classification_type": "U",
        "meta_norad_cat_id": 38740,
        "meta_element_set_no": 999,
        "meta_rev_at_epoch": 4900,
        "meta_bstar": 0,
        "meta_mean_motion_dot": -4e-08,
        "meta_mean_motion_ddot": 0,
        "tle_line1": "1 38740U 12043A   25358.98727073 -.00000004  00000+0  00000+0 0  9991",
        "tle_line2": "2 38740   0.0114  58.8187 0002406 128.2176 330.6334  1.00274574 49001"
      },
      "geometry": {
        "type": "Point",
        "coordinates": [
          143.75105925369292,
          0.02603509396470134
        ]
      }
    },
    {
      "type": "Feature",
      "properties": {
        "norad_id": 38749,
        "name": "INTELSAT 21 (IS-21)",
        "group": "intelsat",
        "lat": 0.01518160197288777,
        "lon": 17.294712956225442,
        "alt_km": 35788.668249389855,
        "timestamp": "2025-12-25T22:42:16.664354+00:00",
        "meta_object_name": "INTELSAT 21 (IS-21)",
        "meta_object_id": "2012-045A",
        "meta_epoch": "2025-12-25T09:21:59.613120",
        "meta_mean_motion": 1.00272381,
        "meta_eccentricity": 0.0001717,
        "meta_inclination": 0.0147,
        "meta_ra_of_asc_node": 324.6716,
        "meta_arg_of_pericenter": 300.7853,
        "meta_mean_anomaly": 271.2065,
        "meta_ephemeris_type": 0,
        "meta_classification_type": "U",
        "meta_norad_cat_id": 38749,
        "meta_element_set_no": 999,
        "meta_rev_at_epoch": 4878,
        "meta_bstar": 0,
        "meta_mean_motion_dot": -2.63e-06,
        "meta_mean_motion_ddot": 0,
        "tle_line1": "1 38749U 12045A   25359.39027330 -.00000263  00000+0  00000+0 0  9994",
        "tle_line2": "2 38749   0.0147 324.6716 0001717 300.7853 271.2065  1.00272381 48780"
      },
      "geometry": {
        "type": "Point",
        "coordinates": [
          17.294712956225442,
          0.01518160197288777
        ]
      }
    }
  ]
}